[{"OBJECT_NAME":"STARLINK-2592","OBJECT_ID":"2021-038BH","EPOCH":"2026-03-09T21:49:49.251648","MEAN_MOTION":15.30181978,"ECCENTRICITY":0.0001165,"INCLINATION":53.16,"RA_OF_ASC_NODE":332.0634,"ARG_OF_PERICENTER":103.8382,"MEAN_ANOMALY":256.2748,"EPHEMERIS_TYPE":0,"CLASSIFICATION_TYPE":"U","NORAD_CAT_ID":48408,"ELEMENT_SET_NO":999,"REV_AT_EPOCH":26746,"BSTAR":-9.0579688e-5,"MEAN_MOTION_DOT":-3.039e-5,"MEAN_MOTION_DDOT":0},{"OBJECT_NAME":"COSMOS 1975","OBJECT_ID":"1988-093A","EPOCH":"2026-03-09T14:15:08.474112","MEAN_MOTION":15.28069249,"ECCENTRICITY":0.0012117,"INCLINATION":82.5181,"RA_OF_ASC_NODE":117.7814,"ARG_OF_PERICENTER":163.8427,"MEAN_ANOMALY":196.3201,"EPHEMERIS_TYPE":0,"CLASSIFICATION_TYPE":"U","NORAD_CAT_ID":19573,"ELEMENT_SET_NO":999,"REV_AT_EPOCH":1939,"BSTAR":0.0002787,"MEAN_MOTION_DOT":7.676e-5,"MEAN_MOTION_DDOT":0}]
